[{"OBJECT_NAME":"STARLINK-30924","OBJECT_ID":"2023-180L","EPOCH":"2026-03-09T13:15:44.812800","MEAN_MOTION":15.32095286,"ECCENTRICITY":0.00011382,"INCLINATION":43.0016,"RA_OF_ASC_NODE":265.3714,"ARG_OF_PERICENTER":269.978,"MEAN_ANOMALY":90.0943,"EPHEMERIS_TYPE":0,"CLASSIFICATION_TYPE":"U","NORAD_CAT_ID":58412,"ELEMENT_SET_NO":999,"REV_AT_EPOCH":12934,"BSTAR":3.0113773e-5,"MEAN_MOTION_DOT":6.78e-6,"MEAN_MOTION_DDOT":0},{"OBJECT_NAME":"STARLINK-35824","OBJECT_ID":"2025-254Y","EPOCH":"2026-03-09T17:36:01.579104","MEAN_MOTION":15.30201559,"ECCENTRICITY":0.00010412,"INCLINATION":53.1578,"RA_OF_ASC_NODE":229.988,"ARG_OF_PERICENTER":73.2932,"MEAN_ANOMALY":286.8183,"EPHEMERIS_TYPE":0,"CLASSIFICATION_TYPE":"U","NORAD_CAT_ID":66370,"ELEMENT_SET_NO":999,"REV_AT_EPOCH":1901,"BSTAR":0.0010895715,"MEAN_MOTION_DOT":0.00032052,"MEAN_MOTION_DDOT":0}]
