STARLINK-30924          
1 58412U 23180L   26068.55260200  .00000678  00000+0  30114-4 0  9999
2 58412  43.0016 265.3714 0001138 269.9780  90.0943 15.32095286129343
STARLINK-35824          
1 66370U 25254Y   26068.73335161  .00032052  00000+0  10896-2 0  9998
2 66370  53.1578 229.9880 0001041  73.2932 286.8183 15.30201559 19011
